{
  "type": "FeatureCollection",
  "features": [
    {
      "type": "Feature",
      "properties": {
        "norad_id": 34079,
        "name": "IRIDIUM 33 DEB",
        "group": "iridium-33-debris",
        "lat": -42.34957759803762,
        "lon": 9.027101932430922,
        "alt_km": 624.758995456752,
        "timestamp": "2025-12-04T15:47:54.483585+00:00",
        "meta_object_name": "IRIDIUM 33 DEB",
        "meta_object_id": "1997-051CN",
        "meta_epoch": "2025-12-04T03:17:56.762592",
        "meta_mean_motion": 14.83177277,
        "meta_eccentricity": 0.00066276,
        "meta_inclination": 86.3779,
        "meta_ra_of_asc_node": 12.5738,
        "meta_arg_of_pericenter": 34.6176,
        "meta_mean_anomaly": 24.0914,
        "meta_ephemeris_type": 0,
        "meta_classification_type": "U",
        "meta_norad_cat_id": 34079,
        "meta_element_set_no": 999,
        "meta_rev_at_epoch": 88850,
        "meta_bstar": 0.0034856602,
        "meta_mean_motion_dot": 0.0002856,
        "meta_mean_motion_ddot": 0,
        "tle_line1": "1 34079U 97051CN  25338.13746253  .00028560  00000+0  34857-2 0  9996",
        "tle_line2": "2 34079  86.3779  12.5738 0006627  34.6176  24.0914 14.83177277888505"
      },
      "geometry": {
        "type": "Point",
        "coordinates": [
          9.027101932430922,
          -42.34957759803762
        ]
      }
    },
    {
      "type": "Feature",
      "properties": {
        "norad_id": 34088,
        "name": "IRIDIUM 33 DEB",
        "group": "iridium-33-debris",
        "lat": -4.927633893428905,
        "lon": -145.25211096554906,
        "alt_km": 595.9389177505518,
        "timestamp": "2025-12-04T15:47:54.483596+00:00",
        "meta_object_name": "IRIDIUM 33 DEB",
        "meta_object_id": "1997-051CX",
        "meta_epoch": "2025-12-04T03:55:52.243968",
        "meta_mean_motion": 14.90715065,
        "meta_eccentricity": 0.0005152,
        "meta_inclination": 86.3857,
        "meta_ra_of_asc_node": 34.6625,
        "meta_arg_of_pericenter": 208.3378,
        "meta_mean_anomaly": 204.601,
        "meta_ephemeris_type": 0,
        "meta_classification_type": "U",
        "meta_norad_cat_id": 34088,
        "meta_element_set_no": 999,
        "meta_rev_at_epoch": 88614,
        "meta_bstar": 0.0059019628,
        "meta_mean_motion_dot": 0.00058368,
        "meta_mean_motion_ddot": 0,
        "tle_line1": "1 34088U 97051CX  25338.16379912  .00058368  00000+0  59020-2 0  9991",
        "tle_line2": "2 34088  86.3857  34.6625 0005152 208.3378 204.6010 14.90715065886140"
      },
      "geometry": {
        "type": "Point",
        "coordinates": [
          -145.25211096554906,
          -4.927633893428905
        ]
      }
    },
    {
      "type": "Feature",
      "properties": {
        "norad_id": 34091,
        "name": "IRIDIUM 33 DEB",
        "group": "iridium-33-debris",
        "lat": -66.62279960455075,
        "lon": 62.022453074374155,
        "alt_km": 613.7741675855368,
        "timestamp": "2025-12-04T15:47:54.483607+00:00",
        "meta_object_name": "IRIDIUM 33 DEB",
        "meta_object_id": "1997-051DA",
        "meta_epoch": "2025-12-04T06:22:03.365472",
        "meta_mean_motion": 14.80787166,
        "meta_eccentricity": 0.00329957,
        "meta_inclination": 86.3424,
        "meta_ra_of_asc_node": 70.712,
        "meta_arg_of_pericenter": 323.9613,
        "meta_mean_anomaly": 35.9384,
        "meta_ephemeris_type": 0,
        "meta_classification_type": "U",
        "meta_norad_cat_id": 34091,
        "meta_element_set_no": 999,
        "meta_rev_at_epoch": 87741,
        "meta_bstar": 0.013386557,
        "meta_mean_motion_dot": 0.00105581,
        "meta_mean_motion_ddot": 0,
        "tle_line1": "1 34091U 97051DA  25338.26531673  .00105581  00000+0  13387-1 0  9995",
        "tle_line2": "2 34091  86.3424  70.7120 0032995 323.9613  35.9384 14.80787166877415"
      },
      "geometry": {
        "type": "Point",
        "coordinates": [
          62.022453074374155,
          -66.62279960455075
        ]
      }
    },
    {
      "type": "Feature",
      "properties": {
        "norad_id": 34097,
        "name": "IRIDIUM 33 DEB",
        "group": "iridium-33-debris",
        "lat": 82.38469165060219,
        "lon": 155.17012692559612,
        "alt_km": 746.0495831723783,
        "timestamp": "2025-12-04T15:47:54.483617+00:00",
        "meta_object_name": "IRIDIUM 33 DEB",
        "meta_object_id": "1997-051DG",
        "meta_epoch": "2025-12-04T01:57:54.018144",
        "meta_mean_motion": 14.34672763,
        "meta_eccentricity": 0.00835917,
        "meta_inclination": 86.2004,
        "meta_ra_of_asc_node": 5.2294,
        "meta_arg_of_pericenter": 30.3184,
        "meta_mean_anomaly": 330.2808,
        "meta_ephemeris_type": 0,
        "meta_classification_type": "U",
        "meta_norad_cat_id": 34097,
        "meta_element_set_no": 999,
        "meta_rev_at_epoch": 86995,
        "meta_bstar": 0.0025968613,
        "meta_mean_motion_dot": 7.662e-05,
        "meta_mean_motion_ddot": 0,
        "tle_line1": "1 34097U 97051DG  25338.08187521  .00007662  00000+0  25969-2 0  9991",
        "tle_line2": "2 34097  86.2004   5.2294 0083591  30.3184 330.2808 14.34672763869956"
      },
      "geometry": {
        "type": "Point",
        "coordinates": [
          155.17012692559612,
          82.38469165060219
        ]
      }
    },
    {
      "type": "Feature",
      "properties": {
        "norad_id": 34145,
        "name": "IRIDIUM 33 DEB",
        "group": "iridium-33-debris",
        "lat": 32.90934031015428,
        "lon": 153.6681080128964,
        "alt_km": 714.2436399610724,
        "timestamp": "2025-12-04T15:47:54.483628+00:00",
        "meta_object_name": "IRIDIUM 33 DEB",
        "meta_object_id": "1997-051DY",
        "meta_epoch": "2025-12-04T05:07:56.080128",
        "meta_mean_motion": 14.42196317,
        "meta_eccentricity": 0.00553495,
        "meta_inclination": 86.211,
        "meta_ra_of_asc_node": 336.324,
        "meta_arg_of_pericenter": 120.9354,
        "meta_mean_anomaly": 239.7303,
        "meta_ephemeris_type": 0,
        "meta_classification_type": "U",
        "meta_norad_cat_id": 34145,
        "meta_element_set_no": 999,
        "meta_rev_at_epoch": 87515,
        "meta_bstar": 0.0021466705,
        "meta_mean_motion_dot": 7.221e-05,
        "meta_mean_motion_ddot": 0,
        "tle_line1": "1 34145U 97051DY  25338.21384352  .00007221  00000+0  21467-2 0  9991",
        "tle_line2": "2 34145  86.2110 336.3240 0055349 120.9354 239.7303 14.42196317875159"
      },
      "geometry": {
        "type": "Point",
        "coordinates": [
          153.6681080128964,
          32.90934031015428
        ]
      }
    },
    {
      "type": "Feature",
      "properties": {
        "norad_id": 34146,
        "name": "IRIDIUM 33 DEB",
        "group": "iridium-33-debris",
        "lat": -51.79330476572688,
        "lon": -11.365868430874311,
        "alt_km": 726.4714794380143,
        "timestamp": "2025-12-04T15:47:54.483639+00:00",
        "meta_object_name": "IRIDIUM 33 DEB",
        "meta_object_id": "1997-051DZ",
        "meta_epoch": "2025-12-04T01:24:47.589696",
        "meta_mean_motion": 14.48952534,
        "meta_eccentricity": 0.00250019,
        "meta_inclination": 86.2834,
        "meta_ra_of_asc_node": 353.6357,
        "meta_arg_of_pericenter": 252.753,
        "meta_mean_anomaly": 170.5987,
        "meta_ephemeris_type": 0,
        "meta_classification_type": "U",
        "meta_norad_cat_id": 34146,
        "meta_element_set_no": 999,
        "meta_rev_at_epoch": 87981,
        "meta_bstar": 0.0019732729,
        "meta_mean_motion_dot": 7.524e-05,
        "meta_mean_motion_ddot": 0,
        "tle_line1": "1 34146U 97051DZ  25338.05888414  .00007524  00000+0  19733-2 0  9991",
        "tle_line2": "2 34146  86.2834 353.6357 0025001 252.7530 170.5987 14.48952534879810"
      },
      "geometry": {
        "type": "Point",
        "coordinates": [
          -11.365868430874311,
          -51.79330476572688
        ]
      }
    },
    {
      "type": "Feature",
      "properties": {
        "norad_id": 34159,
        "name": "IRIDIUM 33 DEB",
        "group": "iridium-33-debris",
        "lat": -31.39907775426107,
        "lon": 49.454857148085594,
        "alt_km": 751.2687485971492,
        "timestamp": "2025-12-04T15:47:54.483649+00:00",
        "meta_object_name": "IRIDIUM 33 DEB",
        "meta_object_id": "1997-051EN",
        "meta_epoch": "2025-12-04T05:55:36.421248",
        "meta_mean_motion": 14.38462175,
        "meta_eccentricity": 0.00264027,
        "meta_inclination": 86.3517,
        "meta_ra_of_asc_node": 51.862,
        "meta_arg_of_pericenter": 317.679,
        "meta_mean_anomaly": 42.237,
        "meta_ephemeris_type": 0,
        "meta_classification_type": "U",
        "meta_norad_cat_id": 34159,
        "meta_element_set_no": 999,
        "meta_rev_at_epoch": 87837,
        "meta_bstar": 0.00079830442,
        "meta_mean_motion_dot": 2.464e-05,
        "meta_mean_motion_ddot": 0,
        "tle_line1": "1 34159U 97051EN  25338.24694932  .00002464  00000+0  79830-3 0  9999",
        "tle_line2": "2 34159  86.3517  51.8620 0026402 317.6790  42.2370 14.38462175878375"
      },
      "geometry": {
        "type": "Point",
        "coordinates": [
          49.454857148085594,
          -31.39907775426107
        ]
      }
    }
  ]
}